{
  "type": "FeatureCollection",
  "features": [
    {
      "type": "Feature",
      "properties": {
        "norad_id": 57400,
        "name": "TIANMU-1 08",
        "group": "weather",
        "lat": 24.381251895025418,
        "lon": 34.68652106459668,
        "alt_km": 477.99014064111543,
        "timestamp": "2025-12-14T09:36:22.677909+00:00",
        "meta_object_name": "TIANMU-1 08",
        "meta_object_id": "2023-101B",
        "meta_epoch": "2025-12-13T16:12:40.845600",
        "meta_mean_motion": 15.28074565,
        "meta_eccentricity": 0.00075128,
        "meta_inclination": 97.287,
        "meta_ra_of_asc_node": 37.3025,
        "meta_arg_of_pericenter": 81.5703,
        "meta_mean_anomaly": 278.6388,
        "meta_ephemeris_type": 0,
        "meta_classification_type": "U",
        "meta_norad_cat_id": 57400,
        "meta_element_set_no": 999,
        "meta_rev_at_epoch": 13329,
        "meta_bstar": 0.00032075543,
        "meta_mean_motion_dot": 8.717e-05,
        "meta_mean_motion_ddot": 0,
        "tle_line1": "1 57400U 23101B   25347.67547275  .00008717  00000+0  32076-3 0  9990",
        "tle_line2": "2 57400  97.2870  37.3025 0007512  81.5703 278.6388 15.28074565133293"
      },
      "geometry": {
        "type": "Point",
        "coordinates": [
          34.68652106459668,
          24.381251895025418
        ]
      }
    },
    {
      "type": "Feature",
      "properties": {
        "norad_id": 57401,
        "name": "TIANMU-1 09",
        "group": "weather",
        "lat": 79.46214235194186,
        "lon": -99.0456895063205,
        "alt_km": 469.67817397458657,
        "timestamp": "2025-12-14T09:36:22.677919+00:00",
        "meta_object_name": "TIANMU-1 09",
        "meta_object_id": "2023-101C",
        "meta_epoch": "2025-12-13T15:53:37.485024",
        "meta_mean_motion": 15.28104302,
        "meta_eccentricity": 0.00067956,
        "meta_inclination": 97.2827,
        "meta_ra_of_asc_node": 36.8024,
        "meta_arg_of_pericenter": 81.4371,
        "meta_mean_anomaly": 278.7639,
        "meta_ephemeris_type": 0,
        "meta_classification_type": "U",
        "meta_norad_cat_id": 57401,
        "meta_element_set_no": 999,
        "meta_rev_at_epoch": 13329,
        "meta_bstar": 0.00031869443,
        "meta_mean_motion_dot": 8.668e-05,
        "meta_mean_motion_ddot": 0,
        "tle_line1": "1 57401U 23101C   25347.66223941  .00008668  00000+0  31869-3 0  9995",
        "tle_line2": "2 57401  97.2827  36.8024 0006795  81.4371 278.7639 15.28104302133294"
      },
      "geometry": {
        "type": "Point",
        "coordinates": [
          -99.0456895063205,
          79.46214235194186
        ]
      }
    },
    {
      "type": "Feature",
      "properties": {
        "norad_id": 57402,
        "name": "TIANMU-1 10",
        "group": "weather",
        "lat": -82.68338599633734,
        "lon": 132.7147054682556,
        "alt_km": 494.54569644274943,
        "timestamp": "2025-12-14T09:36:22.677929+00:00",
        "meta_object_name": "TIANMU-1 10",
        "meta_object_id": "2023-101D",
        "meta_epoch": "2025-12-13T16:42:54.030816",
        "meta_mean_motion": 15.28095998,
        "meta_eccentricity": 0.0008481,
        "meta_inclination": 97.2908,
        "meta_ra_of_asc_node": 37.6868,
        "meta_arg_of_pericenter": 80.6194,
        "meta_mean_anomaly": 279.6004,
        "meta_ephemeris_type": 0,
        "meta_classification_type": "U",
        "meta_norad_cat_id": 57402,
        "meta_element_set_no": 999,
        "meta_rev_at_epoch": 13329,
        "meta_bstar": 0.00034716115,
        "meta_mean_motion_dot": 9.45e-05,
        "meta_mean_motion_ddot": 0,
        "tle_line1": "1 57402U 23101D   25347.69645869  .00009450  00000+0  34716-3 0  9990",
        "tle_line2": "2 57402  97.2908  37.6868 0008481  80.6194 279.6004 15.28095998133294"
      },
      "geometry": {
        "type": "Point",
        "coordinates": [
          132.7147054682556,
          -82.68338599633734
        ]
      }
    },
    {
      "type": "Feature",
      "properties": {
        "norad_id": 57490,
        "name": "FENGYUN 3F",
        "group": "weather",
        "lat": -62.208621871838695,
        "lon": -140.23931704286028,
        "alt_km": 833.2449166178822,
        "timestamp": "2025-12-14T09:36:22.677942+00:00",
        "meta_object_name": "FENGYUN 3F",
        "meta_object_id": "2023-111A",
        "meta_epoch": "2025-12-13T15:33:03.710304",
        "meta_mean_motion": 14.1989391,
        "meta_eccentricity": 6.855e-05,
        "meta_inclination": 98.7083,
        "meta_ra_of_asc_node": 55.9267,
        "meta_arg_of_pericenter": 103.9391,
        "meta_mean_anomaly": 256.1862,
        "meta_ephemeris_type": 0,
        "meta_classification_type": "U",
        "meta_norad_cat_id": 57490,
        "meta_element_set_no": 999,
        "meta_rev_at_epoch": 12253,
        "meta_bstar": 8.3066467e-05,
        "meta_mean_motion_dot": 1.33e-06,
        "meta_mean_motion_ddot": 0,
        "tle_line1": "1 57490U 23111A   25347.64795961  .00000133  00000+0  83066-4 0  9994",
        "tle_line2": "2 57490  98.7083  55.9267 0000685 103.9391 256.1862 14.19893910122539"
      },
      "geometry": {
        "type": "Point",
        "coordinates": [
          -140.23931704286028,
          -62.208621871838695
        ]
      }
    },
    {
      "type": "Feature",
      "properties": {
        "norad_id": 58584,
        "name": "ARKTIKA-M 2",
        "group": "weather",
        "lat": 46.94850817983548,
        "lon": -152.56751686249353,
        "alt_km": 26656.47068237994,
        "timestamp": "2025-12-14T09:36:22.677953+00:00",
        "meta_object_name": "ARKTIKA-M 2",
        "meta_object_id": "2023-198A",
        "meta_epoch": "2025-12-08T20:10:13.977120",
        "meta_mean_motion": 2.0060476,
        "meta_eccentricity": 0.68646991,
        "meta_inclination": 63.2247,
        "meta_ra_of_asc_node": 175.3152,
        "meta_arg_of_pericenter": 268.1185,
        "meta_mean_anomaly": 18.8267,
        "meta_ephemeris_type": 0,
        "meta_classification_type": "U",
        "meta_norad_cat_id": 58584,
        "meta_element_set_no": 999,
        "meta_rev_at_epoch": 1450,
        "meta_bstar": 0,
        "meta_mean_motion_dot": 1.66e-06,
        "meta_mean_motion_ddot": 0,
        "tle_line1": "1 58584U 23198A   25342.84043955  .00000166  00000+0  00000+0 0  9998",
        "tle_line2": "2 58584  63.2247 175.3152 6864699 268.1185  18.8267  2.00604760 14506"
      },
      "geometry": {
        "type": "Point",
        "coordinates": [
          -152.56751686249353,
          46.94850817983548
        ]
      }
    },
    {
      "type": "Feature",
      "properties": {
        "norad_id": 58645,
        "name": "TIANMU-1 11",
        "group": "weather",
        "lat": 66.72795533292813,
        "lon": -9.498185773144513,
        "alt_km": 488.42837925231106,
        "timestamp": "2025-12-14T09:36:22.677967+00:00",
        "meta_object_name": "TIANMU-1 11",
        "meta_object_id": "2023-205A",
        "meta_epoch": "2025-12-13T15:58:58.214784",
        "meta_mean_motion": 15.2461575,
        "meta_eccentricity": 0.00078357,
        "meta_inclination": 97.3612,
        "meta_ra_of_asc_node": 7.2731,
        "meta_arg_of_pericenter": 306.6033,
        "meta_mean_anomaly": 53.4483,
        "meta_ephemeris_type": 0,
        "meta_classification_type": "U",
        "meta_norad_cat_id": 58645,
        "meta_element_set_no": 999,
        "meta_rev_at_epoch": 10923,
        "meta_bstar": 0.00032881546,
        "meta_mean_motion_dot": 8.049e-05,
        "meta_mean_motion_ddot": 0,
        "tle_line1": "1 58645U 23205A   25347.66595156  .00008049  00000+0  32882-3 0  9990",
        "tle_line2": "2 58645  97.3612   7.2731 0007835 306.6033  53.4483 15.24615750109230"
      },
      "geometry": {
        "type": "Point",
        "coordinates": [
          -9.498185773144513,
          66.72795533292813
        ]
      }
    },
    {
      "type": "Feature",
      "properties": {
        "norad_id": 58646,
        "name": "TIANMU-1 12",
        "group": "weather",
        "lat": -78.14648659608599,
        "lon": 45.8126494950422,
        "alt_km": 495.6185698636291,
        "timestamp": "2025-12-14T09:36:22.677977+00:00",
        "meta_object_name": "TIANMU-1 12",
        "meta_object_id": "2023-205B",
        "meta_epoch": "2025-12-13T15:03:21.502944",
        "meta_mean_motion": 15.24497544,
        "meta_eccentricity": 0.00058415,
        "meta_inclination": 97.3599,
        "meta_ra_of_asc_node": 7.0404,
        "meta_arg_of_pericenter": 287.4288,
        "meta_mean_anomaly": 72.6311,
        "meta_ephemeris_type": 0,
        "meta_classification_type": "U",
        "meta_norad_cat_id": 58646,
        "meta_element_set_no": 999,
        "meta_rev_at_epoch": 10921,
        "meta_bstar": 0.00032082772,
        "meta_mean_motion_dot": 7.821e-05,
        "meta_mean_motion_ddot": 0,
        "tle_line1": "1 58646U 23205B   25347.62733221  .00007821  00000+0  32083-3 0  9994",
        "tle_line2": "2 58646  97.3599   7.0404 0005841 287.4288  72.6311 15.24497544109213"
      },
      "geometry": {
        "type": "Point",
        "coordinates": [
          45.8126494950422,
          -78.14648659608599
        ]
      }
    }
  ]
}